[{"OBJECT_NAME":"STARLINK-5830","OBJECT_ID":"2023-088T","EPOCH":"2026-03-09T03:33:42.535008","MEAN_MOTION":15.02531614,"ECCENTRICITY":0.00013745,"INCLINATION":43.0036,"RA_OF_ASC_NODE":110.7944,"ARG_OF_PERICENTER":273.4265,"MEAN_ANOMALY":86.6421,"EPHEMERIS_TYPE":0,"CLASSIFICATION_TYPE":"U","NORAD_CAT_ID":57065,"ELEMENT_SET_NO":999,"REV_AT_EPOCH":14930,"BSTAR":1.5973487e-5,"MEAN_MOTION_DOT":1.2e-7,"MEAN_MOTION_DDOT":0},{"OBJECT_NAME":"COSMOS 886 DEB","OBJECT_ID":"1976-126AR","EPOCH":"2026-03-09T21:36:12.993696","MEAN_MOTION":13.31800165,"ECCENTRICITY":0.07768266,"INCLINATION":65.8223,"RA_OF_ASC_NODE":335.2921,"ARG_OF_PERICENTER":140.8231,"MEAN_ANOMALY":225.1777,"EPHEMERIS_TYPE":0,"CLASSIFICATION_TYPE":"U","NORAD_CAT_ID":9951,"ELEMENT_SET_NO":999,"REV_AT_EPOCH":4670,"BSTAR":0.00068514651,"MEAN_MOTION_DOT":1.806e-5,"MEAN_MOTION_DDOT":0}]
